     2.100          NAVIGATION                              RINEX VERSION / TYPE
fic2rin                                 09/10/2011 01:34:29 PGM / RUN BY / DATE
                                                            END OF HEADER
11 11  9  9  8  0  0.0 -.184303149581D-03 -.341060513165D-11  .000000000000D+00
     .690000000000D+02  .226562500000D+02  .605703801423D-08  .978363399803D+00
     .121258199215D-05  .122306541307D-01  .105798244476D-04  .515367492676D+04
     .460800000000D+06 -.124797224998D-06 -.301002979308D+01  .670552253723D-07
     .888430559156D+00  .137625000000D+03  .966365871120D+00 -.892001441155D-08
     .382515933324D-09  .100000000000D+01  .165200000000D+04  .000000000000D+00
     .240000000000D+01  .000000000000D+00 -.116415321827D-07  .690000000000D+02
     .453606000000D+06  .400000000000D+01
13 11  9  9  8  0  0.0  .252398662269D-03 -.181898940355D-11  .000000000000D+00
     .890000000000D+02  .940625000000D+01  .380622997333D-08 -.301791109307D+01
     .610947608948D-06  .462857517414D-02  .121202319860D-04  .515378704262D+04
     .460800000000D+06  .465661287308D-07 -.571273999649D+00  .875443220139D-07
     .988712426081D+00  .160437500000D+03  .195030119819D+01 -.753245661420D-08
    -.276082928534D-09  .100000000000D+01  .165200000000D+04  .000000000000D+00
     .340000000000D+01  .000000000000D+00 -.111758708954D-07  .890000000000D+02
     .453606000000D+06  .400000000000D+01
14 11  9  9  8  0  0.0  .171316787601D-03  .193267624127D-11  .000000000000D+00
     .650000000000D+02  .126562500000D+02  .392480634108D-08 -.297471375252D+01
     .653788447380D-06  .621725572273D-02  .116191804409D-04  .515371417046D+04
     .460800000000D+06  .109896063805D-06 -.596165138225D+00 -.158324837685D-06
     .981667640203D+00  .164093750000D+03 -.209723850994D+01 -.758924469393D-08
    -.339657005220D-09  .100000000000D+01  .165200000000D+04  .000000000000D+00
     .240000000000D+01  .000000000000D+00 -.884756445885D-08  .650000000000D+02
     .453606000000D+06  .400000000000D+01
16 11  9  9  8  0  0.0 -.196697190404D-03 -.216004991671D-11  .000000000000D+00
     .920000000000D+02 -.491562500000D+02  .444125642473D-08 -.180183386285D+01
    -.249408185482D-05  .624803232495D-02  .279024243355D-05  .515387550545D+04
     .460800000000D+06 -.316649675369D-07  .147493631117D+01 -.167638063431D-07
     .977117556823D+00  .335781250000D+03 -.561129600500D-01 -.830248868912D-08
    -.177864551630D-09  .100000000000D+01  .165200000000D+04  .000000000000D+00
     .240000000000D+01  .000000000000D+00 -.977888703346D-08  .920000000000D+02
     .453606000000D+06  .400000000000D+01
17 11  9  9  8  0  0.0  .175889581442D-03 -.159161572810D-11  .000000000000D+00
     .950000000000D+02 -.851875000000D+02  .407766985132D-08 -.268049334199D+01
    -.431947410107D-05  .657910958398D-02  .103842467070D-04  .515358081245D+04
     .460800000000D+06 -.130385160446D-07  .251735390530D+01 -.372529029846D-07
     .961906017601D+00  .179125000000D+03 -.240379152615D+01 -.770389232661D-08
    -.271439877989D-10  .100000000000D+01  .165200000000D+04  .000000000000D+00
     .340000000000D+01  .000000000000D+00 -.107102096081D-07  .950000000000D+02
     .453606000000D+06  .400000000000D+01
18 11  9  9  8  0  0.0  .156425405294D-03  .181898940355D-11  .000000000000D+00
     .108000000000D+03 -.136250000000D+02  .565273545912D-08 -.121171569211D+01
    -.445172190666D-06  .127685058396D-01  .453554093838D-05  .515362108994D+04
     .460800000000D+06  .229105353355D-06 -.168917039273D+01  .197440385818D-06
     .931629213410D+00  .272718750000D+03 -.221743888866D+01 -.864321716755D-08
    -.760745973838D-10  .100000000000D+01  .165200000000D+04  .000000000000D+00
     .240000000000D+01  .000000000000D+00 -.107102096081D-07  .108000000000D+03
     .453606000000D+06  .400000000000D+01
19 11  9  9  8  0  0.0 -.181895215064D-03 -.397903932026D-11  .000000000000D+00
     .750000000000D+02 -.820312500000D+02  .416124476112D-08  .291016015014D+01
    -.417232513428D-05  .758802390192D-02  .116266310215D-04  .515370792007D+04
     .460800000000D+06 -.763684511185D-07  .257108677517D+01  .558793544769D-08
     .959417355492D+00  .153843750000D+03  .939268644766D-01 -.781246827781D-08
    -.471448209139D-10  .100000000000D+01  .165200000000D+04  .000000000000D+00
     .240000000000D+01  .000000000000D+00 -.144354999065D-07  .750000000000D+02
     .453606000000D+06  .400000000000D+01
20 11  9  9  8  0  0.0  .527226366103D-04  .454747350886D-12  .000000000000D+00
     .110000000000D+03 -.108125000000D+02  .576702593406D-08 -.796775139786D+00
    -.454485416412D-06  .452631886583D-02  .456720590591D-05  .515358805466D+04
     .460800000000D+06 -.167638063431D-07 -.174307747127D+01  .707805156708D-07
     .931896150610D+00  .280968750000D+03  .126864420120D+01 -.876500795491D-08
    -.546451333320D-10  .100000000000D+01  .165200000000D+04  .000000000000D+00
     .340000000000D+01  .000000000000D+00 -.745058059692D-08  .110000000000D+03
     .453606000000D+06  .400000000000D+01
21 11  9  9  8  0  0.0 -.170246232301D-03 -.250111042988D-11  .000000000000D+00
     .106000000000D+03  .434062500000D+02  .530807824562D-08 -.941865441390D-01
     .246055424213D-05  .180942791048D-01  .846013426781D-05  .515371623802D+04
     .460800000000D+06  .689178705215D-07 -.274254241399D+01  .327825546265D-06
     .931954275271D+00  .205031250000D+03 -.233263849843D+01 -.870429114009D-08
     .592524681031D-09  .100000000000D+01  .165200000000D+04  .000000000000D+00
     .240000000000D+01  .000000000000D+00 -.116415321827D-07  .106000000000D+03
     .453606000000D+06  .400000000000D+01
22 11  9  9  8  0  0.0  .144711695611D-03 -.341060513165D-12  .000000000000D+00
     .178000000000D+03 -.151250000000D+02  .566702176849D-08 -.205467069669D+01
    -.804662704468D-06  .593106565066D-02  .452250242233D-05  .515369626617D+04
     .460800000000D+06  .763684511185D-07 -.168524990540D+01  .596046447754D-07
     .929331813212D+00  .271218750000D+03 -.197260986943D+01 -.859928676624D-08
    -.535736601294D-10  .100000000000D+01  .165200000000D+04  .000000000000D+00
     .340000000000D+01  .000000000000D+00 -.167638063431D-07  .178000000000D+03
     .453606000000D+06  .400000000000D+01
23 11  9  9  8  0  0.0  .277437735349D-03 -.306954461848D-11  .000000000000D+00
     .840000000000D+02 -.406250000000D+00  .440804075545D-08  .243189704246D+01
     .912696123123D-07  .758140045218D-02  .118687748909D-04  .515373989487D+04
     .460800000000D+06 -.180676579475D-06 -.643506276162D+00  .763684511185D-07
     .963262397208D+00  .153906250000D+03 -.306181705359D+01 -.785139847083D-08
    -.351086052715D-09  .100000000000D+01  .165200000000D+04  .000000000000D+00
     .340000000000D+01  .000000000000D+00 -.200234353542D-07  .840000000000D+02
     .453606000000D+06  .400000000000D+01
24 11  9  9  8  0  0.0  .422399491072D-03  .318323145621D-11  .000000000000D+00
     .190000000000D+02  .440000000000D+02  .482412951579D-08  .179259710781D+01
     .219792127609D-05  .664145010523D-02  .858679413795D-05  .515342253304D+04
     .460800000000D+06  .689178705215D-07 -.269608013726D+01  .726431608200D-07
     .948499861192D+00  .205812500000D+03 -.200036891699D+00 -.817676916669D-08
     .487520307178D-09  .100000000000D+01  .165200000000D+04  .000000000000D+00
     .340000000000D+01  .000000000000D+00 -.139698386192D-08  .190000000000D+02
     .453606000000D+06  .400000000000D+01
25 11  9  9  8  0  0.0  .178883783519D-04  .181898940355D-11  .000000000000D+00
     .157000000000D+03 -.377812500000D+02  .473662587091D-08 -.975166240617D+00
    -.212714076042D-05  .102745718323D-02  .282004475594D-05  .515359747887D+04
     .460800000000D+06 -.745058059692D-08  .142590756849D+01  .130385160446D-07
     .964977955388D+00  .326093750000D+03  .101154042592D+01 -.842106505688D-08
    -.254653464482D-09  .100000000000D+01  .165200000000D+04  .000000000000D+00
     .240000000000D+01  .000000000000D+00  .558793544769D-08  .157000000000D+03
     .453606000000D+06  .400000000000D+01
26 11  9  9  8  0  0.0 -.151148531586D-03 -.126192389871D-10  .000000000000D+00
     .890000000000D+02  .365625000000D+01  .379872966091D-08  .222801447706D+01
    -.111758708954D-07  .203562291572D-01  .114217400551D-04  .515366033173D+04
     .460800000000D+06  .614672899246D-07 -.576379784166D+00 -.394880771637D-06
     .986312115447D+00  .169718750000D+03  .115963091796D+01 -.733137680984D-08
    -.269654089318D-09  .100000000000D+01  .165200000000D+04  .000000000000D+00
     .240000000000D+01  .000000000000D+00 -.605359673500D-08  .890000000000D+02
     .453606000000D+06  .400000000000D+01
27 11  9  9  8  0  0.0  .303417909890D-03  .386535248253D-11  .000000000000D+00
     .109000000000D+03  .100437500000D+03  .403123934587D-08 -.309702217863D+01
     .527873635292D-05  .216116252122D-01  .737980008125D-05  .515363532639D+04
     .460800000000D+06  .264495611191D-06  .347814377785D+00  .365078449249D-06
     .981707662716D+00  .242531250000D+03 -.120665458073D+01 -.760103089916D-08
     .247510309798D-09  .100000000000D+01  .165200000000D+04  .000000000000D+00
     .340000000000D+01  .630000000000D+02 -.419095158577D-08  .109000000000D+03
     .453606000000D+06  .400000000000D+01
28 11  9  9  8  0  0.0  .660810619593D-04  .295585778076D-11  .000000000000D+00
     .121000000000D+03 -.449062500000D+02  .430696511667D-08 -.199760544573D+01
    -.224262475967D-05  .171754676849D-01  .240653753281D-05  .515370106125D+04
     .460800000000D+06  .363215804100D-06  .148201440623D+01 -.540167093277D-07
     .975430341218D+00  .339781250000D+03 -.188163220976D+01 -.796890336538D-08
    -.205722854897D-09  .100000000000D+01  .165200000000D+04  .000000000000D+00
     .240000000000D+01  .000000000000D+00 -.102445483208D-07  .121000000000D+03
     .453606000000D+06  .400000000000D+01
